COMMENT,ORIGINATOR,NORAD_CAT_ID,OBJECT_NAME,OBJECT_TYPE,CLASSIFICATION_TYPE,INTLDES,EPOCH,EPOCH_MICROSECONDS,MEAN_MOTION,ECCENTRICITY,INCLINATION,RA_OF_ASC_NODE,ARG_OF_PERICENTER,MEAN_ANOMALY,EPHEMERIS_TYPE,ELEMENT_SET_NO,REV_AT_EPOCH,BSTAR,MEAN_MOTION_DOT,MEAN_MOTION_DDOT,FILE,TLE_LINE0,TLE_LINE1,TLE_LINE2,OBJECT_ID,OBJECT_NUMBER,SEMIMAJOR_AXIS,PERIOD,APOGEE,PERIGEE,DECAYED
"GENERATED VIA SPACETRACK.ORG API","18 SPCS","49146","STARLINK-3116","PAYLOAD","U","21082S","2023-10-12 04:13:39","654624","14.98342624","0.0002514","70","332.0288","265.5254","94.5618","0","999","11589","-0.0001209","-0.00001536","0","4031509","0 STARLINK-3116","1 49146U 21082S   23285.17615341 -.00001536  00000-0 -12090-3 0  9997","2 49146  70.0000 332.0288 0002514 265.5254  94.5618 14.98342624115890","2021-082S","49146","6950.154","96.106","573.766","570.272","0"
"GENERATED VIA SPACETRACK.ORG API","18 SPCS","55779","STARLINK-5817","PAYLOAD","U","23028AQ","2023-10-12 05:03:32","754528","14.98327581","0.0002904","70","261.7318","266.5311","93.5516","0","999","3529","0.000079168","0.00000852","0","4031467","0 STARLINK-5817","1 55779U 23028AQ  23285.21079577  .00000852  00000-0  79168-4 0  9996","2 55779  70.0000 261.7318 0002904 266.5311  93.5516 14.98327581 35295","2023-028AQ","55779","6950.200","96.107","574.084","570.047","0"
"GENERATED VIA SPACETRACK.ORG API","18 SPCS","55773","STARLINK-5833","PAYLOAD","U","23028AJ","2023-10-12 09:28:30","793440","14.98325803","0.0002391","70","281.4514","257.8639","102.2253","0","999","3482","-0.000003812","-0.00000138","0","4031907","0 STARLINK-5833","1 55773U 23028AJ  23285.39480085 -.00000138  00000-0 -38120-5 0  9992","2 55773  70.0000 281.4514 0002391 257.8639 102.2253 14.98325803 34821","2023-028AJ","55773","6950.206","96.107","573.733","570.409","0"
"GENERATED VIA SPACETRACK.ORG API","18 SPCS","56477","STARLINK-5534","PAYLOAD","U","23064AF","2023-10-12 09:56:38","280480","14.98336418","0.0002655","70","181.3686","271.089","88.9965","0","999","2403","-0.00012531","-0.00001588","0","4031907","0 STARLINK-5534","1 56477U 23064AF  23285.41433195 -.00001588  00000-0 -12531-3 0  9993","2 56477  70.0000 181.3686 0002655 271.0890  88.9965 14.98336418 24037","2023-064AF","56477","6950.173","96.107","573.883","570.193","0"
"GENERATED VIA SPACETRACK.ORG API","18 SPCS","56790","STARLINK-6345","PAYLOAD","U","23078Z","2023-10-12 10:15:16","655904","15.69918008","0.0003208","70","36.1227","280.0249","80.0585","0","999","2136","0.000021713","0.00002398","0","4031763","0 STARLINK-6345","1 56790U 23078Z   23285.42727611  .00002398  00000-0  21713-4 0  9997","2 56790  70.0000  36.1227 0003208 280.0249  80.0585 15.69918008 21360","2023-078Z","56790","6737.269","91.725","361.295","356.972","0"
"GENERATED VIA SPACETRACK.ORG API","18 SPCS","56790","STARLINK-6345","PAYLOAD","U","23078Z","2023-10-12 10:15:16","655904","15.69918008","0.0003208","70","36.1227","280.0249","80.0585","0","999","2110","0.000021713","0.00002398","0","4031907","0 STARLINK-6345","1 56790U 23078Z   23285.42727611  .00002398  00000-0  21713-4 0  9997","2 56790  70.0000  36.1227 0003208 280.0249  80.0585 15.69918008 21102","2023-078Z","56790","6737.269","91.725","361.295","356.972","0"
"GENERATED VIA SPACETRACK.ORG API","18 SPCS","56773","STARLINK-6296","PAYLOAD","U","23078G","2023-10-12 10:16:56","629344","15.69920934","0.0003292","70","36.1272","270.9628","89.1191","0","999","2136","0.000036577","0.00004187","0","4031786","0 STARLINK-6296","1 56773U 23078G   23285.42843321  .00004187  00000-0  36577-4 0  9997","2 56773  70.0000  36.1272 0003292 270.9628  89.1191 15.69920934 21367","2023-078G","56773","6737.260","91.724","361.343","356.907","0"
"GENERATED VIA SPACETRACK.ORG API","18 SPCS","56773","STARLINK-6296","PAYLOAD","U","23078G","2023-10-12 10:16:56","629344","15.69920934","0.0003292","70","36.1272","270.9628","89.1191","0","999","2110","0.000036577","0.00004187","0","4031907","0 STARLINK-6296","1 56773U 23078G   23285.42843321  .00004187  00000-0  36577-4 0  9997","2 56773  70.0000  36.1272 0003292 270.9628  89.1191 15.69920934 21109","2023-078G","56773","6737.260","91.724","361.343","356.907","0"
"GENERATED VIA SPACETRACK.ORG API","18 SPCS","55744","STARLINK-5601","PAYLOAD","U","23028D","2023-10-12 10:34:56","914464","14.98336262","0.0002774","70","301.4976","269.9121","90.172","0","999","3433","0.000073365","0.00000783","0","4031764","0 STARLINK-5601","1 55744U 23028D   23285.44093651  .00000783  00000-0  73365-4 0  9998","2 55744  70.0000 301.4976 0002774 269.9121  90.1720 14.98336262 34330","2023-028D","55744","6950.174","96.107","573.967","570.111","0"
"GENERATED VIA SPACETRACK.ORG API","18 SPCS","55274","STARLINK-5236","PAYLOAD","U","23010F","2023-10-12 10:49:03","689760","14.98337791","0.0002997","70","81.4964","267.4536","92.628","0","999","4125","-0.000060534","-0.00000815","0","4031807","0 STARLINK-5236","1 55274U 23010F   23285.45073715 -.00000815  00000-0 -60534-4 0  9999","2 55274  70.0000  81.4964 0002997 267.4536  92.6280 14.98337791 41255","2023-010F","55274","6950.169","96.106","574.117","569.951","0"
"GENERATED VIA SPACETRACK.ORG API","18 SPCS","55744","STARLINK-5601","PAYLOAD","U","23028D","2023-10-12 12:11:04","938720","14.98337162","0.0002734","70","301.3291","269.359","90.7256","0","999","3434","0.000094005","0.00001029","0","4031907","0 STARLINK-5601","1 55744U 23028D   23285.50769605  .00001029  00000-0  94005-4 0  9992","2 55744  70.0000 301.3291 0002734 269.3590  90.7256 14.98337162 34340","2023-028D","55744","6950.171","96.107","573.936","570.136","0"
"GENERATED VIA SPACETRACK.ORG API","18 SPCS","49146","STARLINK-3116","PAYLOAD","U","21082S","2023-10-12 12:14:19","677408","14.98343602","0.0002509","70","331.1871","265.8482","94.239","0","999","11593","-0.000072556","-0.00000959","0","4031907","0 STARLINK-3116","1 49146U 21082S   23285.50994997 -.00000959  00000-0 -72556-4 0  9993","2 49146  70.0000 331.1871 0002509 265.8482  94.2390 14.98343602115934","2021-082S","49146","6950.151","96.106","573.760","570.272","0"
"GENERATED VIA SPACETRACK.ORG API","18 SPCS","55915","STARLINK-5859","PAYLOAD","U","23037B","2023-10-12 12:17:50","340480","14.98335274","0.0002794","70","1.2311","269.832","90.2518","0","999","3248","-0.0000057388","-0.00000161","0","4031907","0 STARLINK-5859","1 55915U 23037B   23285.51238820 -.00000161  00000-0 -57388-5 0  9995","2 55915  70.0000   1.2311 0002794 269.8320  90.2518 14.98335274 32482","2023-037B","55915","6950.177","96.107","573.983","570.100","0"
"GENERATED VIA SPACETRACK.ORG API","18 SPCS","55274","STARLINK-5236","PAYLOAD","U","23010F","2023-10-12 12:25:11","784000","14.9833698","0.0003015","70","81.3281","267.5594","92.522","0","999","4158","-0.000068363","-0.00000909","0","4031907","0 STARLINK-5236","1 55274U 23010F   23285.51749750 -.00000909  00000-0 -68363-4 0  9997","2 55274  70.0000  81.3281 0003015 267.5594  92.5220 14.98336980 41581","2023-010F","55274","6950.171","96.107","574.132","569.941","0"
"GENERATED VIA SPACETRACK.ORG API","18 SPCS","55299","STARLINK-5270","PAYLOAD","U","23010AG","2023-10-12 12:55:26","965920","14.98330291","0.0002959","70","80.9964","271.7469","88.3351","0","999","4246","-0.0000078515","-0.00000187","0","4031907","0 STARLINK-5270","1 55299U 23010AG  23285.53850655 -.00000187  00000-0 -78515-5 0  9992","2 55299  70.0000  80.9964 0002959 271.7469  88.3351 14.98330291 42460","2023-010AG","55299","6950.192","96.107","574.114","570.000","0"
"GENERATED VIA SPACETRACK.ORG API","18 SPCS","55923","STARLINK-5854","PAYLOAD","U","23037K","2023-10-12 13:41:56","969664","14.98338119","0.0002959","70","1.0327","269.1474","90.9346","0","999","3180","-0.0000012539","-0.00000108","0","4031907","0 STARLINK-5854","1 55923U 23037K   23285.57079826 -.00000108  00000-0 -12539-5 0  9999","2 55923  70.0000   1.0327 0002959 269.1474  90.9346 14.98338119 31804","2023-037K","55923","6950.168","96.106","574.089","569.976","0"
"GENERATED VIA SPACETRACK.ORG API","18 SPCS","55414","STARLINK-5620","PAYLOAD","U","23014Z","2023-10-12 14:08:19","79808","14.98333101","0.0002808","70","140.8957","263.2346","96.8494","0","999","3988","0.0000064975","-0.00000015","0","4031907","0 STARLINK-5620","1 55414U 23014Z   23285.58910972 -.00000015  00000-0  64975-5 0  9993","2 55414  70.0000 140.8957 0002808 263.2346  96.8494 14.98333101 39887","2023-014Z","55414","6950.183","96.107","574.000","570.097","0"
"GENERATED VIA SPACETRACK.ORG API","18 SPCS","55922","STARLINK-5863","PAYLOAD","U","23037J","2023-10-12 15:12:03","990528","14.98338698","0.0003084","70","0.8493","269.9273","90.1532","0","999","3215","0.000091184","0.00000995","0","4032192","0 STARLINK-5863","1 55922U 23037J   23285.63337952  .00000995  00000-0  91184-4 0  9996","2 55922  70.0000   0.8493 0003084 269.9273  90.1532 14.98338698 32159","2023-037J","55922","6950.166","96.106","574.174","569.888","0"
"GENERATED VIA SPACETRACK.ORG API","18 SPCS","55922","STARLINK-5863","PAYLOAD","U","23037J","2023-10-12 15:12:03","990528","14.98338698","0.0003084","70","0.8493","269.9273","90.1532","0","999","3181","0.000091184","0.00000995","0","4032297","0 STARLINK-5863","1 55922U 23037J   23285.63337952  .00000995  00000-0  91184-4 0  9996","2 55922  70.0000   0.8493 0003084 269.9273  90.1532 14.98338698 31811","2023-037J","55922","6950.166","96.106","574.174","569.888","0"
"GENERATED VIA SPACETRACK.ORG API","18 SPCS","56812","STARLINK-6065","PAYLOAD","U","23078AX","2023-10-12 16:18:47","501280","15.69920468","0.0002982","70","35.3947","254.4178","105.6688","0","999","2114","0.000011838","0.00001211","0","4032297","0 STARLINK-6065","1 56812U 23078AX  23285.67971645  .00001211  00000-0  11838-4 0  9997","2 56812  70.0000  35.3947 0002982 254.4178 105.6688 15.69920468 21146","2023-078AX","56812","6737.262","91.724","361.136","357.117","0"
